SKYSAT-C4               
1 41771U 16058B   26158.31541300  .00016963  00000+0  32285-3 0  9996
2 41771  96.9182 180.5027 0000861  88.9365 271.1986 15.48278698543941
SKYSAT-C5               
1 41772U 16058C   26158.38696168  .00008444  00000+0  25624-3 0  9991
2 41772  97.0475 199.4656 0002218   8.1763 351.9517 15.34330071542248
SKYSAT-C2               
1 41773U 16058D   26158.33042041  .00012887  00000+0  30551-3 0  9993
2 41773  97.0172 180.7981 0005190  91.5623 268.6219 15.41846048543530
SKYSAT-C3               
1 41774U 16058E   26158.34513112  .00022023  00000+0  36554-3 0  9999
2 41774  96.9014 189.5742 0001964  81.2521 278.8955 15.52118854544589
ALSAT-1B                
1 41785U 16059C   26158.52139810  .00000212  00000+0  41029-4 0  9991
2 41785  97.7754 167.7026 0007711 257.1241 102.9105 14.72266796519152
PATHFINDER 1            
1 41787U 16059E   26158.25085181  .00000702  00000+0  13099-3 0  9993
2 41787  97.8166 157.9756 0027155 236.4180 123.4433 14.67652251518250
SCATSAT 1               
1 41790U 16059H   26158.40682035  .00001259  00000+0  17196-3 0  9995
2 41790  98.1194 222.0719 0053277 279.8516  79.6683 14.79506223100144
GOKTURK 1A              
1 41875U 16073A   26158.53234954  .00000366  00000+0  80997-4 0  9990
2 41875  98.1257  53.3576 0001464  78.8115 281.3251 14.62767489507416
RESOURCESAT-2A          
1 41877U 16074A   26158.49881922 -.00000103  00000+0 -26994-4 0  9999
2 41877  98.7522 232.0823 0003340 101.4712 258.6840 14.21612695492924
CARTOSAT-2D             
1 41948U 17008A   26158.47665781  .00005280  00000+0  25361-3 0  9992
2 41948  97.4111 217.9634 0003486 277.5278  82.5561 15.19262570516100
SENTINEL-2B             
1 42063U 17013A   26158.48719928  .00000062  00000+0  40401-4 0  9997
2 42063  98.5687 233.3983 0001216  85.8254 274.3068 14.30814274483259
CARTOSAT-2E             
1 42767U 17036C   26158.49424668  .00005269  00000+0  25316-3 0  9999
2 42767  97.4277 218.4564 0003218   1.2127 358.9114 15.19250272496678
FORMOSAT-5              
1 42920U 17049A   26158.46698608  .00000205  00000+0  62872-4 0  9992
2 42920  98.2254 233.9925 0012651 111.1356 249.1192 14.50895403465265
SENTINEL-5P             
1 42969U 17064A   26158.26334951  .00000067  00000+0  53030-4 0  9990
2 42969  98.7923 100.4654 0000971  81.5738 278.5548 14.19517376448154
SKYSAT-C11              
1 42987U 17068A   26158.16398981  .00027537  00000+0  37704-3 0  9996
2 42987  97.4344 306.5637 0001067  88.3614 271.7763 15.57375419481684
SKYSAT-C10              
1 42988U 17068B   26158.18518167  .00009786  00000+0  29549-3 0  9993
2 42988  97.4496 294.9372 0001279  90.0123 270.1267 15.34468196480826
SKYSAT-C9               
1 42989U 17068C   26158.17688009  .00013800  00000+0  33270-3 0  9994
2 42989  97.4415 295.7688 0008921 165.3280 194.8227 15.41313071481219
SKYSAT-C8               
1 42990U 17068D   26158.10653602  .00011859  00000+0  33215-3 0  9991
2 42990  97.4513 294.6195 0001592  99.6385 260.5039 15.36778300480768
SKYSAT-C7               
1 42991U 17068E   26157.64400368  .00013554  00000+0  37973-3 0  9998
2 42991  97.4524 295.1398 0006904 137.5981 222.5798 15.36715247480758
SKYSAT-C6               
1 42992U 17068F   26158.10197462  .00010141  00000+0  31024-3 0  9999
2 42992  97.4559 295.6102 0003824 164.8599 195.2759 15.34035159480771
CARTOSAT-2F             
1 43111U 18004A   26158.52610133  .00004408  00000+0  21208-3 0  9997
2 43111  97.4786 218.2553 0000118  31.3496 328.7746 15.19300608465864
GAOFEN-1 02             
1 43259U 18031A   26158.53953412  .00001008  00000+0  15219-3 0  9999
2 43259  98.0525 221.0932 0004383  54.8674 305.2946 14.76469128441270
GAOFEN-1 03             
1 43260U 18031B   26158.51770245  .00000886  00000+0  13478-3 0  9998
2 43260  98.0526 220.9308 0003825  98.1239 262.0405 14.76455943441265
GAOFEN-1 04             
1 43262U 18031D   26158.49343211  .00001022  00000+0  15422-3 0  9990
2 43262  98.0527 221.0961 0002224  91.6134 268.5330 14.76467003441256
SENTINEL-3B             
1 43437U 18039A   26158.44165147  .00000123  00000+0  68878-4 0  9992
2 43437  98.6250 226.1134 0000894  77.1201 283.0079 14.26739074422731
GAOFEN-5 01             
1 43461U 18043A   26158.19696684  .00000420  00000+0  96567-4 0  9997
2 43461  98.4565 129.5738 0002994 101.3657 258.7879 14.60598790430236
GAOFEN-6                
1 43484U 18048A   26158.51637704  .00000416  00000+0  66510-4 0  9991
2 43484  97.7757 221.5552 0011250 200.2583 159.8182 14.76620977431964
GAOFEN-11 01            
1 43585U 18063A   26158.52159265  .00018814  00000+0  28157-3 0  9997
2 43585  97.1293 225.4303 0004257  30.8500 329.3004 15.55016554438846
ICESAT-2                
1 43613U 18070A   26158.46405755  .00009537  00000+0  34654-3 0  9999
2 43613  92.0068 288.3536 0005191 120.8664 239.3096 15.28243522430971
HYSIS                   
1 43719U 18096A   26158.46711405  .00000957  00000+0  13769-3 0  9997
2 43719  97.9837 225.2909 0001614 111.6400 248.4983 14.78674979405989
KAZSTSAT                
1 43783U 18099AB  26158.35709845  .00001457  00000+0  12210-3 0  9990
2 43783  97.4265 190.7329 0007743  95.2091 265.0017 14.99839972409834
