OBJECT_NAME,OBJECT_ID,EPOCH,MEAN_MOTION,ECCENTRICITY,INCLINATION,RA_OF_ASC_NODE,ARG_OF_PERICENTER,MEAN_ANOMALY,EPHEMERIS_TYPE,CLASSIFICATION_TYPE,NORAD_CAT_ID,ELEMENT_SET_NO,REV_AT_EPOCH,BSTAR,MEAN_MOTION_DOT,MEAN_MOTION_DDOT
SKYSAT-C4,2016-058B,2026-06-07T07:34:11.683200,15.48278698,.0000861,96.9182,180.5027,88.9365,271.1986,0,U,41771,999,54394,.32285E-3,.16963E-3,0
SKYSAT-C5,2016-058C,2026-06-07T09:17:13.489152,15.34330071,.0002218,97.0475,199.4656,8.1763,351.9517,0,U,41772,999,54224,.25624E-3,.8444E-4,0
SKYSAT-C2,2016-058D,2026-06-07T07:55:48.323424,15.41846048,.000519,97.0172,180.7981,91.5623,268.6219,0,U,41773,999,54353,.30551E-3,.12887E-3,0
SKYSAT-C3,2016-058E,2026-06-07T08:16:59.328768,15.52118854,.0001964,96.9014,189.5742,81.2521,278.8955,0,U,41774,999,54458,.36554E-3,.22023E-3,0
ALSAT-1B,2016-059C,2026-06-07T12:30:48.795840,14.72266796,.0007711,97.7754,167.7026,257.1241,102.9105,0,U,41785,999,51915,.41029E-4,.212E-5,0
PATHFINDER 1,2016-059E,2026-06-07T06:01:13.596384,14.67652251,.00271555,97.8166,157.9756,236.4180,123.4433,0,U,41787,999,51825,.13099462E-3,.702E-5,0
SCATSAT 1,2016-059H,2026-06-07T09:45:49.278240,14.79506223,.0053277,98.1194,222.0719,279.8516,79.6683,0,U,41790,999,10014,.17196E-3,.1259E-4,0
GOKTURK 1A,2016-073A,2026-06-07T12:46:35.000256,14.62767489,.0001464,98.1257,53.3576,78.8115,281.3251,0,U,41875,999,50741,.80997E-4,.366E-5,0
RESOURCESAT-2A,2016-074A,2026-06-07T11:58:17.980608,14.21612695,.000334,98.7522,232.0823,101.4712,258.6840,0,U,41877,999,49292,-.26994E-4,-.103E-5,0
CARTOSAT-2D,2017-008A,2026-06-07T11:26:23.234784,15.19262570,.0003486,97.4111,217.9634,277.5278,82.5561,0,U,41948,999,51610,.25361E-3,.528E-4,0
SENTINEL-2B,2017-013A,2026-06-07T11:41:34.017792,14.30814274,.0001216,98.5687,233.3983,85.8254,274.3068,0,U,42063,999,48325,.40401E-4,.62E-6,0
CARTOSAT-2E,2017-036C,2026-06-07T11:51:42.913152,15.19250272,.0003218,97.4277,218.4564,1.2127,358.9114,0,U,42767,999,49667,.25316E-3,.5269E-4,0
FORMOSAT-5,2017-049A,2026-06-07T11:12:27.597312,14.50895403,.0012651,98.2254,233.9925,111.1356,249.1192,0,U,42920,999,46526,.62872E-4,.205E-5,0
SENTINEL-5P,2017-064A,2026-06-07T06:19:13.397664,14.19517376,.0000971,98.7923,100.4654,81.5738,278.5548,0,U,42969,999,44815,.5303E-4,.67E-6,0
SKYSAT-C11,2017-068A,2026-06-07T03:56:08.719584,15.57375419,.0001067,97.4344,306.5637,88.3614,271.7763,0,U,42987,999,48168,.37704E-3,.27537E-3,0
SKYSAT-C10,2017-068B,2026-06-07T04:26:39.696288,15.34468196,.0001279,97.4496,294.9372,90.0123,270.1267,0,U,42988,999,48082,.29549E-3,.9786E-4,0
SKYSAT-C9,2017-068C,2026-06-07T04:14:42.439776,15.41313071,.0008921,97.4415,295.7688,165.3280,194.8227,0,U,42989,999,48121,.3327E-3,.138E-3,0
SKYSAT-C8,2017-068D,2026-06-07T02:33:24.712128,15.36778300,.0001592,97.4513,294.6195,99.6385,260.5039,0,U,42990,999,48076,.33215E-3,.11859E-3,0
SKYSAT-C7,2017-068E,2026-06-06T15:27:21.917952,15.36715247,.0006904,97.4524,295.1398,137.5981,222.5798,0,U,42991,999,48075,.37973E-3,.13554E-3,0
SKYSAT-C6,2017-068F,2026-06-07T02:26:50.607168,15.34035159,.0003824,97.4559,295.6102,164.8599,195.2759,0,U,42992,999,48077,.31024E-3,.10141E-3,0
CARTOSAT-2F,2018-004A,2026-06-07T12:37:35.154912,15.19300608,.0000118,97.4786,218.2553,31.3496,328.7746,0,U,43111,999,46586,.21208E-3,.4408E-4,0
GAOFEN-1 02,2018-031A,2026-06-07T12:56:55.747968,14.76469128,.0004383,98.0525,221.0932,54.8674,305.2946,0,U,43259,999,44127,.15219E-3,.1008E-4,0
GAOFEN-1 03,2018-031B,2026-06-07T12:25:29.491680,14.76455943,.0003825,98.0526,220.9308,98.1239,262.0405,0,U,43260,999,44126,.13478E-3,.886E-5,0
GAOFEN-1 04,2018-031D,2026-06-07T11:50:32.534304,14.76467003,.0002224,98.0527,221.0961,91.6134,268.5330,0,U,43262,999,44125,.15422E-3,.1022E-4,0
SENTINEL-3B,2018-039A,2026-06-07T10:35:58.687008,14.26739074,.0000894,98.6250,226.1134,77.1201,283.0079,0,U,43437,999,42273,.68878E-4,.123E-5,0
GAOFEN-5 01,2018-043A,2026-06-07T04:43:37.934976,14.60598790,.0002994,98.4565,129.5738,101.3657,258.7879,0,U,43461,999,43023,.96567E-4,.42E-5,0
GAOFEN-6,2018-048A,2026-06-07T12:23:34.976256,14.76620977,.001125,97.7757,221.5552,200.2583,159.8182,0,U,43484,999,43196,.6651E-4,.416E-5,0
GAOFEN-11 01,2018-063A,2026-06-07T12:31:05.604960,15.55016554,.0004257,97.1293,225.4303,30.8500,329.3004,0,U,43585,999,43884,.28157E-3,.18814E-3,0
ICESAT-2,2018-070A,2026-06-07T11:08:14.572320,15.28243522,.0005191,92.0068,288.3536,120.8664,239.3096,0,U,43613,999,43097,.34654E-3,.9537E-4,0
HYSIS,2018-096A,2026-06-07T11:12:38.653920,14.78674979,.0001614,97.9837,225.2909,111.6400,248.4983,0,U,43719,999,40598,.13769E-3,.957E-5,0
KAZSTSAT,2018-099AB,2026-06-07T08:34:13.306080,14.99839972,.0007743,97.4265,190.7329,95.2091,265.0017,0,U,43783,999,40983,.1221E-3,.1457E-4,0
